{
  "type": "FeatureCollection",
  "features": [
    {
      "type": "Feature",
      "properties": {
        "norad_id": 33765,
        "name": "COSMOS 2251 DEB",
        "group": "cosmos-2251-debris",
        "lat": -33.23616054650023,
        "lon": 153.99360251830902,
        "alt_km": 525.0905328252738,
        "timestamp": "2025-12-16T17:51:11.324737+00:00",
        "meta_object_name": "COSMOS 2251 DEB",
        "meta_object_id": "1993-036N",
        "meta_epoch": "2025-12-15T21:52:46.854624",
        "meta_mean_motion": 15.1018723,
        "meta_eccentricity": 0.00650224,
        "meta_inclination": 74.0077,
        "meta_ra_of_asc_node": 166.5465,
        "meta_arg_of_pericenter": 258.1458,
        "meta_mean_anomaly": 223.8321,
        "meta_ephemeris_type": 0,
        "meta_classification_type": "U",
        "meta_norad_cat_id": 33765,
        "meta_element_set_no": 999,
        "meta_rev_at_epoch": 89666,
        "meta_bstar": 0.0013909806,
        "meta_mean_motion_dot": 0.00023927,
        "meta_mean_motion_ddot": 0,
        "tle_line1": "1 33765U 93036N   25349.91165341  .00023927  00000+0  13910-2 0  9996",
        "tle_line2": "2 33765  74.0077 166.5465 0065022 258.1458 223.8321 15.10187230896666"
      },
      "geometry": {
        "type": "Point",
        "coordinates": [
          153.99360251830902,
          -33.23616054650023
        ]
      }
    },
    {
      "type": "Feature",
      "properties": {
        "norad_id": 33766,
        "name": "COSMOS 2251 DEB",
        "group": "cosmos-2251-debris",
        "lat": 5.616755807470355,
        "lon": -53.88893710120715,
        "alt_km": 819.0530343977407,
        "timestamp": "2025-12-16T17:51:11.324748+00:00",
        "meta_object_name": "COSMOS 2251 DEB",
        "meta_object_id": "1993-036P",
        "meta_epoch": "2025-12-15T19:17:23.575776",
        "meta_mean_motion": 14.34942719,
        "meta_eccentricity": 0.00642916,
        "meta_inclination": 74.1854,
        "meta_ra_of_asc_node": 129.415,
        "meta_arg_of_pericenter": 331.9526,
        "meta_mean_anomaly": 27.8168,
        "meta_ephemeris_type": 0,
        "meta_classification_type": "U",
        "meta_norad_cat_id": 33766,
        "meta_element_set_no": 999,
        "meta_rev_at_epoch": 87789,
        "meta_bstar": 0.0004849731,
        "meta_mean_motion_dot": 1.387e-05,
        "meta_mean_motion_ddot": 0,
        "tle_line1": "1 33766U 93036P   25349.80374509  .00001387  00000+0  48497-3 0  9998",
        "tle_line2": "2 33766  74.1854 129.4150 0064291 331.9526  27.8168 14.34942719877894"
      },
      "geometry": {
        "type": "Point",
        "coordinates": [
          -53.88893710120715,
          5.616755807470355
        ]
      }
    },
    {
      "type": "Feature",
      "properties": {
        "norad_id": 33768,
        "name": "COSMOS 2251 DEB",
        "group": "cosmos-2251-debris",
        "lat": 73.181366307963,
        "lon": -75.68796293124474,
        "alt_km": 951.2245095214494,
        "timestamp": "2025-12-16T17:51:11.324760+00:00",
        "meta_object_name": "COSMOS 2251 DEB",
        "meta_object_id": "1993-036R",
        "meta_epoch": "2025-12-15T22:30:56.115072",
        "meta_mean_motion": 13.58457539,
        "meta_eccentricity": 0.03664907,
        "meta_inclination": 74.0675,
        "meta_ra_of_asc_node": 214.706,
        "meta_arg_of_pericenter": 11.7522,
        "meta_mean_anomaly": 89.9037,
        "meta_ephemeris_type": 0,
        "meta_classification_type": "U",
        "meta_norad_cat_id": 33768,
        "meta_element_set_no": 999,
        "meta_rev_at_epoch": 83339,
        "meta_bstar": 0.00031625137,
        "meta_mean_motion_dot": 3.36e-06,
        "meta_mean_motion_ddot": 0,
        "tle_line1": "1 33768U 93036R   25349.93814948  .00000336  00000+0  31625-3 0  9998",
        "tle_line2": "2 33768  74.0675 214.7060 0366490  11.7522  89.9037 13.58457539833396"
      },
      "geometry": {
        "type": "Point",
        "coordinates": [
          -75.68796293124474,
          73.181366307963
        ]
      }
    },
    {
      "type": "Feature",
      "properties": {
        "norad_id": 33779,
        "name": "COSMOS 2251 DEB",
        "group": "cosmos-2251-debris",
        "lat": -48.744023536688516,
        "lon": 143.92137902044155,
        "alt_km": 670.4272416697759,
        "timestamp": "2025-12-16T17:51:11.324771+00:00",
        "meta_object_name": "COSMOS 2251 DEB",
        "meta_object_id": "1993-036U",
        "meta_epoch": "2025-12-15T23:04:06.822048",
        "meta_mean_motion": 14.70529984,
        "meta_eccentricity": 0.00167609,
        "meta_inclination": 74.0441,
        "meta_ra_of_asc_node": 164.4752,
        "meta_arg_of_pericenter": 197.4195,
        "meta_mean_anomaly": 289.2521,
        "meta_ephemeris_type": 0,
        "meta_classification_type": "U",
        "meta_norad_cat_id": 33779,
        "meta_element_set_no": 999,
        "meta_rev_at_epoch": 88575,
        "meta_bstar": 0.0014302579,
        "meta_mean_motion_dot": 8.68e-05,
        "meta_mean_motion_ddot": 0,
        "tle_line1": "1 33779U 93036U   25349.96119007  .00008680  00000+0  14303-2 0  9990",
        "tle_line2": "2 33779  74.0441 164.4752 0016760 197.4195 289.2521 14.70529984885757"
      },
      "geometry": {
        "type": "Point",
        "coordinates": [
          143.92137902044155,
          -48.744023536688516
        ]
      }
    },
    {
      "type": "Feature",
      "properties": {
        "norad_id": 33782,
        "name": "COSMOS 2251 DEB",
        "group": "cosmos-2251-debris",
        "lat": -3.417480833913234,
        "lon": -90.83803576519766,
        "alt_km": 746.2518937570494,
        "timestamp": "2025-12-16T17:51:11.324782+00:00",
        "meta_object_name": "COSMOS 2251 DEB",
        "meta_object_id": "1993-036X",
        "meta_epoch": "2025-12-15T20:27:42.583680",
        "meta_mean_motion": 14.40456127,
        "meta_eccentricity": 0.00208697,
        "meta_inclination": 74.0329,
        "meta_ra_of_asc_node": 271.7894,
        "meta_arg_of_pericenter": 336.1314,
        "meta_mean_anomaly": 80.2135,
        "meta_ephemeris_type": 0,
        "meta_classification_type": "U",
        "meta_norad_cat_id": 33782,
        "meta_element_set_no": 999,
        "meta_rev_at_epoch": 88171,
        "meta_bstar": 0.00039855017,
        "meta_mean_motion_dot": 1.244e-05,
        "meta_mean_motion_ddot": 0,
        "tle_line1": "1 33782U 93036X   25349.85257620  .00001244  00000+0  39855-3 0  9995",
        "tle_line2": "2 33782  74.0329 271.7894 0020869 336.1314  80.2135 14.40456127881712"
      },
      "geometry": {
        "type": "Point",
        "coordinates": [
          -90.83803576519766,
          -3.417480833913234
        ]
      }
    },
    {
      "type": "Feature",
      "properties": {
        "norad_id": 33785,
        "name": "COSMOS 2251 DEB",
        "group": "cosmos-2251-debris",
        "lat": -69.98156340577638,
        "lon": -0.523882917334247,
        "alt_km": 660.3691021729692,
        "timestamp": "2025-12-16T17:51:11.324793+00:00",
        "meta_object_name": "COSMOS 2251 DEB",
        "meta_object_id": "1993-036AA",
        "meta_epoch": "2025-12-15T15:07:57.624384",
        "meta_mean_motion": 14.7055981,
        "meta_eccentricity": 0.00225452,
        "meta_inclination": 73.8676,
        "meta_ra_of_asc_node": 54.26,
        "meta_arg_of_pericenter": 353.2101,
        "meta_mean_anomaly": 157.3328,
        "meta_ephemeris_type": 0,
        "meta_classification_type": "U",
        "meta_norad_cat_id": 33785,
        "meta_element_set_no": 999,
        "meta_rev_at_epoch": 88549,
        "meta_bstar": 0.0011954486,
        "meta_mean_motion_dot": 7.264e-05,
        "meta_mean_motion_ddot": 0,
        "tle_line1": "1 33785U 93036AA  25349.63052806  .00007264  00000+0  11954-2 0  9990",
        "tle_line2": "2 33785  73.8676  54.2600 0022545 353.2101 157.3328 14.70559810885498"
      },
      "geometry": {
        "type": "Point",
        "coordinates": [
          -0.523882917334247,
          -69.98156340577638
        ]
      }
    },
    {
      "type": "Feature",
      "properties": {
        "norad_id": 33789,
        "name": "COSMOS 2251 DEB",
        "group": "cosmos-2251-debris",
        "lat": 3.213934657645442,
        "lon": 81.53037652391761,
        "alt_km": 1106.5399243938973,
        "timestamp": "2025-12-16T17:51:11.324803+00:00",
        "meta_object_name": "COSMOS 2251 DEB",
        "meta_object_id": "1993-036AE",
        "meta_epoch": "2025-12-15T18:12:35.543808",
        "meta_mean_motion": 13.88802502,
        "meta_eccentricity": 0.02400747,
        "meta_inclination": 74.0645,
        "meta_ra_of_asc_node": 82.2824,
        "meta_arg_of_pericenter": 197.2476,
        "meta_mean_anomaly": 282.1503,
        "meta_ephemeris_type": 0,
        "meta_classification_type": "U",
        "meta_norad_cat_id": 33789,
        "meta_element_set_no": 999,
        "meta_rev_at_epoch": 85137,
        "meta_bstar": 0.00069381339,
        "meta_mean_motion_dot": 1.031e-05,
        "meta_mean_motion_ddot": 0,
        "tle_line1": "1 33789U 93036AE  25349.75874472  .00001031  00000+0  69381-3 0  9992",
        "tle_line2": "2 33789  74.0645  82.2824 0240074 197.2476 282.1503 13.88802502851379"
      },
      "geometry": {
        "type": "Point",
        "coordinates": [
          81.53037652391761,
          3.213934657645442
        ]
      }
    }
  ]
}